[{"OBJECT_NAME":"STARLINK-2467","OBJECT_ID":"2021-027AL","EPOCH":"2026-03-08T14:56:22.855200","MEAN_MOTION":15.06694969,"ECCENTRICITY":0.00012157,"INCLINATION":53.0543,"RA_OF_ASC_NODE":156.4086,"ARG_OF_PERICENTER":141.8553,"MEAN_ANOMALY":218.2522,"EPHEMERIS_TYPE":0,"CLASSIFICATION_TYPE":"U","NORAD_CAT_ID":48126,"ELEMENT_SET_NO":999,"REV_AT_EPOCH":27254,"BSTAR":0.0044912039,"MEAN_MOTION_DOT":0.000678,"MEAN_MOTION_DDOT":0},{"OBJECT_NAME":"HELIOS 1A","OBJECT_ID":"1995-033A","EPOCH":"2026-03-09T15:20:38.403168","MEAN_MOTION":15.05208405,"ECCENTRICITY":0.0012543,"INCLINATION":98.2085,"RA_OF_ASC_NODE":312.7113,"ARG_OF_PERICENTER":11.1866,"MEAN_ANOMALY":348.9636,"EPHEMERIS_TYPE":0,"CLASSIFICATION_TYPE":"U","NORAD_CAT_ID":23605,"ELEMENT_SET_NO":999,"REV_AT_EPOCH":65318,"BSTAR":0.00025897,"MEAN_MOTION_DOT":3.631e-5,"MEAN_MOTION_DDOT":0}]
